start=new Date('2022-02-28T00:00:00.000Z').valueOf();
sats=[{"CLASSIFICATION_TYPE":"U","COUNTRY_CODE":"US","TIME_SYSTEM":"UTC","EPHEMERIS_TYPE":"0","SITE":"AFETR","MEAN_MOTION":"15.55745928","OBJECT_NAME":"STARLINK-3361","RCS_SIZE":"LARGE","ELEMENT_SET_NO":"999","REV_AT_EPOCH":"370","SEMIMAJOR_AXIS":"6778.122","GP_ID":"197289065","TLE_LINE1":"1 51151U 22005AZ  22058.91667824 -.00654348  00000-0 -10113-1 0  9991","ECCENTRICITY":"0.00012940","CENTER_NAME":"EARTH","MEAN_ANOMALY":"306.7423","PERIOD":"92.560","MEAN_MOTION_DDOT":"0.0000000000000","APOAPSIS":"400.864","OBJECT_ID":"2022-005AZ","EPOCH":"2022-02-27T22:00:00.999936","BSTAR":"-0.01011300000000","FILE":"3331200","INCLINATION":"53.2174","DECAY_DATE":null,"MEAN_MOTION_DOT":"-0.00654348","ARG_OF_PERICENTER":"47.2538","LAUNCH_DATE":"2022-01-19","PERIAPSIS":"399.110","OBJECT_TYPE":"PAYLOAD","RA_OF_ASC_NODE":"77.8604","REF_FRAME":"TEME","TLE_LINE2":"2 51151  53.2174  77.8604 0001294  47.2538 306.7423 15.55745928  3700","NORAD_CAT_ID":"51151","MEAN_ELEMENT_THEORY":"SGP4"},{"NORAD_CAT_ID":"51152","MEAN_ELEMENT_THEORY":"SGP4","RA_OF_ASC_NODE":"77.8610","REF_FRAME":"TEME","TLE_LINE2":"2 51152  53.2173  77.8610 0001213  54.9413 293.1529 15.55628839  3702","PERIAPSIS":"399.505","OBJECT_TYPE":"PAYLOAD","LAUNCH_DATE":"2022-01-19","ARG_OF_PERICENTER":"54.9413","MEAN_MOTION_DOT":"-0.00654149","FILE":"3331200","DECAY_DATE":null,"INCLINATION":"53.2173","OBJECT_ID":"2022-005BA","EPOCH":"2022-02-27T22:00:00.999936","BSTAR":"-0.01015400000000","MEAN_MOTION_DDOT":"0.0000000000000","APOAPSIS":"401.150","PERIOD":"92.567","ECCENTRICITY":"0.00012130","CENTER_NAME":"EARTH","TLE_LINE1":"1 51152U 22005BA  22058.91667824 -.00654149  00000-0 -10154-1 0  9996","MEAN_ANOMALY":"293.1529","GP_ID":"197289286","SEMIMAJOR_AXIS":"6778.462","REV_AT_EPOCH":"370","ELEMENT_SET_NO":"999","SITE":"AFETR","RCS_SIZE":"LARGE","MEAN_MOTION":"15.55628839","OBJECT_NAME":"STARLINK-3364","EPHEMERIS_TYPE":"0","TIME_SYSTEM":"UTC","CLASSIFICATION_TYPE":"U","COUNTRY_CODE":"US"},{"PERIOD":"91.530","TLE_LINE1":"1 51460U 22010E   22058.91667824 -.00018443  00000-0 -12696-3 0  9990","CENTER_NAME":"EARTH","ECCENTRICITY":"0.00012500","MEAN_ANOMALY":"164.0489","REV_AT_EPOCH":"320","SEMIMAJOR_AXIS":"6727.732","GP_ID":"197289319","ELEMENT_SET_NO":"999","SITE":"AFETR","OBJECT_NAME":"STARLINK-3167","MEAN_MOTION":"15.73257321","RCS_SIZE":"LARGE","EPHEMERIS_TYPE":"0","TIME_SYSTEM":"UTC","CLASSIFICATION_TYPE":"U","COUNTRY_CODE":"US","NORAD_CAT_ID":"51460","MEAN_ELEMENT_THEORY":"SGP4","RA_OF_ASC_NODE":"52.5833","REF_FRAME":"TEME","TLE_LINE2":"2 51460  53.2166  52.5833 0001250  61.9347 164.0489 15.73257321  3208","PERIAPSIS":"348.756","OBJECT_TYPE":"PAYLOAD","MEAN_MOTION_DOT":"-0.00018443","ARG_OF_PERICENTER":"61.9347","LAUNCH_DATE":"2022-02-03","FILE":"3331200","INCLINATION":"53.2166","DECAY_DATE":null,"EPOCH":"2022-02-27T22:00:00.999936","OBJECT_ID":"2022-010E","BSTAR":"-0.00012696000000","MEAN_MOTION_DDOT":"0.0000000000000","APOAPSIS":"350.438"},{"TIME_SYSTEM":"UTC","CLASSIFICATION_TYPE":"U","COUNTRY_CODE":"US","SITE":"AFETR","OBJECT_NAME":"STARLINK-3181","MEAN_MOTION":"15.73227546","RCS_SIZE":"LARGE","EPHEMERIS_TYPE":"0","REV_AT_EPOCH":"319","GP_ID":"197289595","SEMIMAJOR_AXIS":"6727.817","ELEMENT_SET_NO":"999","PERIOD":"91.532","TLE_LINE1":"1 51461U 22010F   22058.91667824  .00006688  00000-0  51972-4 0  9998","CENTER_NAME":"EARTH","ECCENTRICITY":"0.00012870","MEAN_ANOMALY":"83.4055","OBJECT_ID":"2022-010F","EPOCH":"2022-02-27T22:00:00.999936","BSTAR":"0.00005197200000","MEAN_MOTION_DDOT":"0.0000000000000","APOAPSIS":"350.548","MEAN_MOTION_DOT":"0.00006688","ARG_OF_PERICENTER":"56.6418","LAUNCH_DATE":"2022-02-03","FILE":"3331200","INCLINATION":"53.2174","DECAY_DATE":null,"PERIAPSIS":"348.816","OBJECT_TYPE":"PAYLOAD","NORAD_CAT_ID":"51461","MEAN_ELEMENT_THEORY":"SGP4","RA_OF_ASC_NODE":"52.7619","REF_FRAME":"TEME","TLE_LINE2":"2 51461  53.2174  52.7619 0001287  56.6418  83.4055 15.73227546  3199"},{"SEMIMAJOR_AXIS":"6727.851","GP_ID":"197288900","REV_AT_EPOCH":"319","ELEMENT_SET_NO":"999","PERIOD":"91.532","ECCENTRICITY":"0.00010980","CENTER_NAME":"EARTH","TLE_LINE1":"1 51462U 22010G   22058.91667824  .00065992  00000-0  47062-3 0  9996","MEAN_ANOMALY":"75.6202","TIME_SYSTEM":"UTC","CLASSIFICATION_TYPE":"U","COUNTRY_CODE":"US","SITE":"AFETR","RCS_SIZE":"LARGE","MEAN_MOTION":"15.73215387","OBJECT_NAME":"STARLINK-3166","EPHEMERIS_TYPE":"0","PERIAPSIS":"348.978","OBJECT_TYPE":"PAYLOAD","NORAD_CAT_ID":"51462","MEAN_ELEMENT_THEORY":"SGP4","RA_OF_ASC_NODE":"52.7585","REF_FRAME":"TEME","TLE_LINE2":"2 51462  53.2167  52.7585 0001098  65.0148  75.6202 15.73215387  3195","EPOCH":"2022-02-27T22:00:00.999936","OBJECT_ID":"2022-010G","BSTAR":"0.00047062000000","MEAN_MOTION_DDOT":"0.0000000000000","APOAPSIS":"350.455","ARG_OF_PERICENTER":"65.0148","LAUNCH_DATE":"2022-02-03","MEAN_MOTION_DOT":"0.00065992","FILE":"3331200","DECAY_DATE":null,"INCLINATION":"53.2167"},{"REV_AT_EPOCH":"320","GP_ID":"197289419","SEMIMAJOR_AXIS":"6727.734","ELEMENT_SET_NO":"999","PERIOD":"91.530","TLE_LINE1":"1 51463U 22010H   22058.91667824 -.00030527  00000-0 -21335-3 0  9990","CENTER_NAME":"EARTH","ECCENTRICITY":"0.00014110","MEAN_ANOMALY":"181.4683","TIME_SYSTEM":"UTC","CLASSIFICATION_TYPE":"U","COUNTRY_CODE":"US","SITE":"AFETR","MEAN_MOTION":"15.73256664","OBJECT_NAME":"STARLINK-3419","RCS_SIZE":"LARGE","EPHEMERIS_TYPE":"0","PERIAPSIS":"348.649","OBJECT_TYPE":"PAYLOAD","NORAD_CAT_ID":"51463","MEAN_ELEMENT_THEORY":"SGP4","RA_OF_ASC_NODE":"52.5773","REF_FRAME":"TEME","TLE_LINE2":"2 51463  53.2159  52.5773 0001411  46.3949 181.4683 15.73256664  3208","EPOCH":"2022-02-27T22:00:00.999936","OBJECT_ID":"2022-010H","BSTAR":"-0.00021335000000","MEAN_MOTION_DDOT":"0.0000000000000","APOAPSIS":"350.548","MEAN_MOTION_DOT":"-0.00030527","LAUNCH_DATE":"2022-02-03","ARG_OF_PERICENTER":"46.3949","FILE":"3331200","INCLINATION":"53.2159","DECAY_DATE":null},{"ELEMENT_SET_NO":"999","REV_AT_EPOCH":"319","SEMIMAJOR_AXIS":"6727.952","GP_ID":"197288999","TLE_LINE1":"1 51464U 22010J   22058.91667824  .00083437  00000-0  59352-3 0  9997","CENTER_NAME":"EARTH","ECCENTRICITY":"0.00013600","MEAN_ANOMALY":"83.5906","PERIOD":"91.534","CLASSIFICATION_TYPE":"U","COUNTRY_CODE":"US","TIME_SYSTEM":"UTC","EPHEMERIS_TYPE":"0","SITE":"AFETR","MEAN_MOTION":"15.73180234","OBJECT_NAME":"STARLINK-3189","RCS_SIZE":"LARGE","PERIAPSIS":"348.902","OBJECT_TYPE":"PAYLOAD","REF_FRAME":"TEME","RA_OF_ASC_NODE":"52.7535","TLE_LINE2":"2 51464  53.2158  52.7535 0001360  58.3092  83.5906 15.73180234  3198","NORAD_CAT_ID":"51464","MEAN_ELEMENT_THEORY":"SGP4","MEAN_MOTION_DDOT":"0.0000000000000","APOAPSIS":"350.732","EPOCH":"2022-02-27T22:00:00.999936","OBJECT_ID":"2022-010J","BSTAR":"0.00059352000000","FILE":"3331200","INCLINATION":"53.2158","DECAY_DATE":null,"MEAN_MOTION_DOT":"0.00083437","LAUNCH_DATE":"2022-02-03","ARG_OF_PERICENTER":"58.3092"},{"ELEMENT_SET_NO":"999","SEMIMAJOR_AXIS":"6727.900","GP_ID":"197289519","REV_AT_EPOCH":"319","MEAN_ANOMALY":"99.7772","ECCENTRICITY":"0.00014830","CENTER_NAME":"EARTH","TLE_LINE1":"1 51465U 22010K   22058.91667824  .00082508  00000-0  58657-3 0  9993","PERIOD":"91.533","COUNTRY_CODE":"US","CLASSIFICATION_TYPE":"U","TIME_SYSTEM":"UTC","EPHEMERIS_TYPE":"0","RCS_SIZE":"LARGE","MEAN_MOTION":"15.73198346","OBJECT_NAME":"STARLINK-3401","SITE":"AFETR","OBJECT_TYPE":"PAYLOAD","PERIAPSIS":"348.767","TLE_LINE2":"2 51465  53.2157  52.7517 0001483  42.7096  99.7772 15.73198346  3198","RA_OF_ASC_NODE":"52.7517","REF_FRAME":"TEME","MEAN_ELEMENT_THEORY":"SGP4","NORAD_CAT_ID":"51465","APOAPSIS":"350.763","MEAN_MOTION_DDOT":"0.0000000000000","BSTAR":"0.00058657000000","OBJECT_ID":"2022-010K","EPOCH":"2022-02-27T22:00:00.999936","DECAY_DATE":null,"INCLINATION":"53.2157","FILE":"3331200","ARG_OF_PERICENTER":"42.7096","LAUNCH_DATE":"2022-02-03","MEAN_MOTION_DOT":"0.00082508"},{"MEAN_MOTION_DOT":"0.00087211","LAUNCH_DATE":"2022-02-03","ARG_OF_PERICENTER":"47.7112","INCLINATION":"53.2162","DECAY_DATE":null,"FILE":"3331200","BSTAR":"0.00061958000000","OBJECT_ID":"2022-010M","EPOCH":"2022-02-27T22:00:00.999936","APOAPSIS":"350.643","MEAN_MOTION_DDOT":"0.0000000000000","MEAN_ELEMENT_THEORY":"SGP4","NORAD_CAT_ID":"51467","TLE_LINE2":"2 51467  53.2162  52.5764 0001278  47.7112 180.7668 15.73192043  3209","REF_FRAME":"TEME","RA_OF_ASC_NODE":"52.5764","OBJECT_TYPE":"PAYLOAD","PERIAPSIS":"348.923","OBJECT_NAME":"STARLINK-3178","MEAN_MOTION":"15.73192043","RCS_SIZE":"LARGE","SITE":"AFETR","EPHEMERIS_TYPE":"0","TIME_SYSTEM":"UTC","COUNTRY_CODE":"US","CLASSIFICATION_TYPE":"U","PERIOD":"91.534","MEAN_ANOMALY":"180.7668","TLE_LINE1":"1 51467U 22010M   22058.91667824  .00087211  00000-0  61958-3 0  9999","ECCENTRICITY":"0.00012780","CENTER_NAME":"EARTH","REV_AT_EPOCH":"320","GP_ID":"197289220","SEMIMAJOR_AXIS":"6727.918","ELEMENT_SET_NO":"999"},{"REV_AT_EPOCH":"320","SEMIMAJOR_AXIS":"6727.891","GP_ID":"197289099","ELEMENT_SET_NO":"999","PERIOD":"91.533","TLE_LINE1":"1 51468U 22010N   22058.91667824  .00083807  00000-0  59557-3 0  9999","CENTER_NAME":"EARTH","ECCENTRICITY":"0.00012150","MEAN_ANOMALY":"183.1059","TIME_SYSTEM":"UTC","CLASSIFICATION_TYPE":"U","COUNTRY_CODE":"US","SITE":"AFETR","OBJECT_NAME":"STARLINK-3174","MEAN_MOTION":"15.73201475","RCS_SIZE":"LARGE","EPHEMERIS_TYPE":"0","PERIAPSIS":"348.939","OBJECT_TYPE":"PAYLOAD","NORAD_CAT_ID":"51468","MEAN_ELEMENT_THEORY":"SGP4","REF_FRAME":"TEME","RA_OF_ASC_NODE":"52.5787","TLE_LINE2":"2 51468  53.2155  52.5787 0001215  43.4755 183.1059 15.73201475  3205","OBJECT_ID":"2022-010N","EPOCH":"2022-02-27T22:00:00.999936","BSTAR":"0.00059557000000","MEAN_MOTION_DDOT":"0.0000000000000","APOAPSIS":"350.573","MEAN_MOTION_DOT":"0.00083807","ARG_OF_PERICENTER":"43.4755","LAUNCH_DATE":"2022-02-03","FILE":"3331200","INCLINATION":"53.2155","DECAY_DATE":null}];
